[{"OBJECT_NAME":"OBJECT V","OBJECT_ID":"2023-085V","EPOCH":"2026-03-09T21:44:00.165408","MEAN_MOTION":15.30745852,"ECCENTRICITY":0.00069081,"INCLINATION":97.4843,"RA_OF_ASC_NODE":179.3833,"ARG_OF_PERICENTER":71.0503,"MEAN_ANOMALY":289.1485,"EPHEMERIS_TYPE":0,"CLASSIFICATION_TYPE":"U","NORAD_CAT_ID":57023,"ELEMENT_SET_NO":999,"REV_AT_EPOCH":15149,"BSTAR":0.00067780507,"MEAN_MOTION_DOT":0.00020109,"MEAN_MOTION_DDOT":0},{"OBJECT_NAME":"STARLINK-32389","OBJECT_ID":"2024-184T","EPOCH":"2026-03-09T03:31:42.783744","MEAN_MOTION":15.30190121,"ECCENTRICITY":9.544e-5,"INCLINATION":53.1625,"RA_OF_ASC_NODE":16.4831,"ARG_OF_PERICENTER":87.2231,"MEAN_ANOMALY":272.8879,"EPHEMERIS_TYPE":0,"CLASSIFICATION_TYPE":"U","NORAD_CAT_ID":61549,"ELEMENT_SET_NO":999,"REV_AT_EPOCH":7842,"BSTAR":-9.07574e-6,"MEAN_MOTION_DOT":-6.28e-6,"MEAN_MOTION_DDOT":0}]
